NAVSTAR 77 (USA 289)    
1 43873U 18109A   23271.72724596  .00000053  00000+0  00000+0 0  9997
2 43873  55.1998 131.4010 0026186 190.2836  87.9694  2.00569552 35168
